STARLINK-5755
1 55600U 23020AH  26090.83335647  .00146843  00000+0  52737-2 0  9990
2 55600  43.0000 229.0538 0001610 317.9159 173.2448 15.27371830  5817
STARLINK-6310
1 56533U 23065AG  26090.64197877  .00042047  00000+0  15385-2 0  9994
2 56533  43.0027  74.0745 0001375 289.4370  70.6333 15.27372519160120
STARLINK-30418
1 57829U 23138X   26090.74506653  .00106948  00000+0  38647-2 0  9998
2 57829  43.0001 109.4225 0001200 279.0030  81.0685 15.27369181141948
STARLINK-30883
1 58252U 23171Y   26090.50924578  .00115324  00000+0  41596-2 0  9995
2 58252  43.0089 161.8066 0003224 263.1422  96.9063 15.27385042133071
STARLINK-31202
1 59042U 24038V   26090.84958950  .00087335  00000+0  31626-2 0  9997
2 59042  43.0001 257.8816 0002101 248.3123 111.7505 15.27404791118251
